BEIDOU 3 (C01)          
1 36287U 10001A   21138.58436856 -.00000274  00000-0  00000-0 0  9992
2 36287   1.8289  45.0314 0004347  77.8253 104.4511  1.00272021 41559
BEIDOU 5 (C06)          
1 36828U 10036A   21138.66305023 -.00000040  00000-0  00000-0 0  9992
2 36828  54.1711 179.8699 0112732 235.2579 179.3148  1.00270317 39619
BEIDOU 6 (C04)          
1 37210U 10057A   21138.87533053 -.00000106  00000-0  00000-0 0  9993
2 37210   0.7967  44.1343 0002423 136.3524 171.3927  1.00272567 38672
BEIDOU 7 (C07)          
1 37256U 10068A   21138.69381280 -.00000207  00000-0  00000-0 0  9990
2 37256  50.9133 294.3497 0084109 215.1337  96.0138  1.00264247 38181
BEIDOU 8 (C08)          
1 37384U 11013A   21138.75112059 -.00000200  00000-0  00000-0 0  9999
2 37384  59.7385  58.2039 0052454 206.9467   0.4225  1.00261950 37068
BEIDOU 9 (C09)          
1 37763U 11038A   21138.88502553 -.00000040  00000-0  00000-0 0  9995
2 37763  54.4597 182.3083 0082776 226.1986 242.7240  1.00271331 36043
BEIDOU 10 (C10)         
1 37948U 11073A   21138.27472409 -.00000139  00000-0  00000-0 0  9997
2 37948  51.0212 293.9700 0070978 213.5840 281.8120  1.00260159 34797
BEIDOU 11 (C05)         
1 38091U 12008A   21138.92279024  .00000063  00000-0  00000-0 0  9991
2 38091   1.4903  66.9095 0008509 320.5044 240.3303  1.00275101 33878
BEIDOU 12 (C11)         
1 38250U 12018A   21138.26569084 -.00000076  00000-0  00000-0 0  9999
2 38250  56.7551   6.6084 0020567 250.7709 323.7428  1.86234274 61725
BEIDOU 13 (C12)         
1 38251U 12018B   21138.97572104 -.00000074  00000-0  00000-0 0  9993
2 38251  56.6774   5.9349 0011647 256.0750 118.8985  1.86234161 61740
BEIDOU 15 (C14)         
1 38775U 12050B   21138.25933807  .00000079  00000-0  00000-0 0  9996
2 38775  55.1949 124.9998 0016263 316.7141 135.3562  1.86232306 59109
BEIDOU 16 (C02)         
1 38953U 12059A   21138.86019343 -.00000169  00000-0  00000-0 0  9991
2 38953   1.8996  84.7356 0008462 289.4913 256.2637  1.00272409 31440
BEIDOU 17 (C31)         
1 40549U 15019A   21138.24345791 -.00000164  00000-0  00000-0 0  9990
2 40549  52.5411 317.3349 0037392 186.3582 276.7475  1.00272420 22470
BEIDOU 18 (C57)         
1 40748U 15037A   21138.33462218 -.00000076  00000-0  00000-0 0  9997
2 40748  55.9400   5.0619 0005371  21.2760 193.7833  1.86233375 39557
BEIDOU 19 (C58)         
1 40749U 15037B   21137.56449941 -.00000079  00000-0  00000-0 0  9993
2 40749  55.9436   5.0750 0005439 341.9495 213.0256  1.86232209 39533
BEIDOU 20 (C18)         
1 40938U 15053A   21138.86219985 -.00000133  00000-0  00000-0 0  9999
2 40938  52.1111 280.3989 0046186 190.3220 171.1712  1.00289751 20755
BEIDOU IGSO-6 (C13)     
1 41434U 16021A   21138.56460201 -.00000166  00000-0  00000-0 0  9999
2 41434  57.5219  56.9566 0038540 216.0243 263.6668  1.00275429 18873
BEIDOU-2 G7 (C03)       
1 41586U 16037A   21138.86547288 -.00000348  00000-0  00000-0 0  9990
2 41586   1.6381  66.3097 0009507  14.8235 217.7574  1.00273237 18186
BEIDOU-3 M1 (C19)       
1 43001U 17069A   21138.55939510  .00000082  00000-0  00000-0 0  9993
2 43001  55.3488 124.9371 0012444 290.1678 159.1959  1.86231759 24049
BEIDOU-3 M2 (C20)       
1 43002U 17069B   21138.89611006  .00000085  00000-0  00000-0 0  9991
2 43002  55.3489 124.9615 0010921 307.0403  51.5997  1.86231451 24039
BEIDOU-3 M3 (C27)       
1 43107U 18003A   21138.38313542 -.00000078  00000-0  00000-0 0  9997
2 43107  55.3829   6.1544 0005725  45.0172 135.5631  1.86232535 22796
BEIDOU-3 M4 (C28)       
1 43108U 18003B   21138.83139256 -.00000077  00000-0  00000-0 0  9995
2 43108  55.3750   6.1283 0002060 259.0104 267.2818  1.86232474 22805
BEIDOU-3 M5 (C21)       
1 43207U 18018A   21138.49362141  .00000081  00000-0  00000-0 0  9998
2 43207  55.3082 125.0674 0008117 322.2262  37.7104  1.86231603 22187
BEIDOU-3 M6 (C22)       
1 43208U 18018B   21138.56028503  .00000082  00000-0  00000-0 0  9999
2 43208  55.3097 125.0698 0010526 298.3971  61.4905  1.86231659 22181
BEIDOU-3 M7 (C29)       
1 43245U 18029A   21138.88742602 -.00000075  00000-0  00000-0 0  9993
2 43245  55.3146   3.9293 0001408  30.6847  38.1779  1.86232652 21341
BEIDOU-3 M8 (C30)       
1 43246U 18029B   21138.44288752 -.00000076  00000-0  10000-3 0  9992
2 43246  55.3132   3.9757 0004883   0.4703 176.4998  1.86232816 21327
BEIDOU IGSO-7 (C16)     
1 43539U 18057A   21138.43032810 -.00000086  00000-0  00000-0 0  9996
2 43539  55.0529 179.2250 0038413 222.4455 103.1807  1.00278333 10548
BEIDOU-3 M9 (C23)       
1 43581U 18062A   21138.40567944 -.00000004  00000-0  00000-0 0  9997
2 43581  54.4137 245.6276 0002950 269.3742  92.6699  1.86231841 19070
BEIDOU-3 M10 (C24)      
1 43582U 18062B   21137.71806407  .00000000  00000-0  00000-0 0  9996
2 43582  54.4149 245.6411 0004300   4.0184 348.3327  1.86232054 19054
BEIDOU-3 M11 (C25)      
1 43602U 18067A   21138.71651417 -.00000005  00000-0  00000-0 0  9990
2 43602  54.4889 244.1874 0006527   0.7067 343.3249  1.86231677 18564
BEIDOU-3 M12 (C26)      
1 43603U 18067B   21138.82173979 -.00000005  00000-0  00000-0 0  9995
2 43603  54.4844 244.1514 0003842 350.3220 334.7267  1.86231601 18582
BEIDOU-3 M13 (C32)      
1 43622U 18072A   21138.84419806  .00000084  00000-0  00000-0 0  9992
2 43622  55.2737 124.6243 0008941 287.6438  82.6075  1.86231726 18104
BEIDOU-3 M14 (C33)      
1 43623U 18072B   21138.32970473  .00000079  00000-0  00000-0 0  9992
2 43623  55.2733 124.6328 0007071 305.4093 170.1311  1.86231676 18092
BEIDOU-3 M15 (C34)      
1 43647U 18078A   21137.42277963 -.00000080  00000-0  10000-3 0  9995
2 43647  55.2073   4.1742 0007252   2.4687 120.2586  1.86233075 17589
BEIDOU-3 M16 (C35)      
1 43648U 18078B   21137.91446865 -.00000078  00000-0  10000-3 0  9996
2 43648  55.2041   4.1626 0005575  13.0343 347.8589  1.86232301 17614
BEIDOU-3 G1 (C59)       
1 43683U 18085A   21138.87140492 -.00000271  00000-0  00000-0 0  9997
2 43683   1.1014 230.7999 0002796   9.4772  90.2496  1.00273404  9454
BEIDOU-3 M17 (C36)      
1 43706U 18093A   21138.60395161 -.00000005  00000-0  00000-0 0  9993
2 43706  54.4937 245.4786 0009433 266.9969  92.9192  1.86231844 16989
BEIDOU-3 M18 (C37)      
1 43707U 18093B   21138.35215688 -.00000003  00000-0  00000-0 0  9999
2 43707  54.4945 245.4769 0007443 295.1170 346.8053  1.86232057 16969
BEIDOU-3 IGSO-1 (C38)   
1 44204U 19023A   21138.75298980 -.00000210  00000-0  00000-0 0  9996
2 44204  55.9795  57.2397 0015281 202.8969 357.3217  1.00248265  7757
BEIDOU-2 G8             
1 44231U 19027A   21138.87227727 -.00000242  00000-0  00000-0 0  9999
2 44231   0.2991 336.0086 0005609 216.7966 142.5213  1.00269405  7462
BEIDOU-3 IGSO-2 (C39)   
1 44337U 19035A   21138.50149586 -.00000069  00000-0  00000-0 0  9998
2 44337  55.0864 175.2657 0020228 191.9501 155.7719  1.00290084  7088
BEIDOU-3 M23 (C45)      
1 44542U 19061A   21138.67821792 -.00000005  00000-0  10000-3 0  9993
2 44542  54.7186 245.5390 0007346 329.2993 124.3789  1.86231432 11238
BEIDOU-3 M24 (C46)      
1 44543U 19061B   21138.64820868 -.00000005  00000-0  10000-3 0  9994
2 44543  54.7177 245.5107 0004553 320.1219  24.2463  1.86231650 11232
BEIDOU-3 IGSO-3         
1 44709U 19073A   21138.70852575 -.00000155  00000-0  00000-0 0  9990
2 44709  57.8857 300.4591 0018816 197.3658 100.3785  1.00284137  5848
BEIDOU-3 M21            
1 44793U 19078A   21136.50139852 -.00000084  00000-0  10000-3 0  9995
2 44793  55.0597   4.2730 0007162   7.8836 171.5840  1.86232614 10059
BEIDOU-3 M22            
1 44794U 19078B   21138.77766826 -.00000076  00000-0  00000-0 0  9991
2 44794  55.0365   4.1949 0005211   7.1019 169.4224  1.86232847 10097
BEIDOU-3 M19            
1 44864U 19090A   21138.48999618  .00000081  00000-0  00000-0 0  9993
2 44864  55.2073 124.8692 0018175 269.2726 268.9785  1.86231844  9672
BEIDOU-3 M20            
1 44865U 19090B   21138.23425935  .00000079  00000-0  00000-0 0  9990
2 44865  55.2106 124.9089 0017061 282.4397 174.2744  1.86231834  9656
BEIDOU-3 G2             
1 45344U 20017A   21139.01965918 -.00000139  00000-0  00000-0 0  9999
2 45344   2.4682 335.7608 0003489 111.4775 236.8467  1.00272717  4665
BEIDOU-3 G3             
1 45807U 20040A   21138.86547287 -.00000350  00000-0  00000-0 0  9991
2 45807   2.3520 298.5744 0005495   7.6753 352.6357  1.00274915  3483
